{
  "type": "FeatureCollection",
  "features": [
    {
      "type": "Feature",
      "properties": {
        "norad_id": 44793,
        "name": "BEIDOU-3 M22 (C44)",
        "group": "beidou",
        "lat": -34.76201364995069,
        "lon": -83.60444482288099,
        "alt_km": 21526.14062133883,
        "timestamp": "2025-12-07T20:38:14.329440+00:00",
        "meta_object_name": "BEIDOU-3 M22 (C44)",
        "meta_object_id": "2019-078A",
        "meta_epoch": "2025-12-05T05:48:12.053952",
        "meta_mean_motion": 1.86231816,
        "meta_eccentricity": 0.00057288,
        "meta_inclination": 54.1154,
        "meta_ra_of_asc_node": 306.6493,
        "meta_arg_of_pericenter": 22.8633,
        "meta_mean_anomaly": 337.1445,
        "meta_ephemeris_type": 0,
        "meta_classification_type": "U",
        "meta_norad_cat_id": 44793,
        "meta_element_set_no": 999,
        "meta_rev_at_epoch": 4103,
        "meta_bstar": 0,
        "meta_mean_motion_dot": -6.9e-07,
        "meta_mean_motion_ddot": 0,
        "tle_line1": "1 44793U 19078A   25339.24180618 -.00000069  00000+0  00000+0 0  9998",
        "tle_line2": "2 44793  54.1154 306.6493 0005728  22.8633 337.1445  1.86231816 41037"
      },
      "geometry": {
        "type": "Point",
        "coordinates": [
          -83.60444482288099,
          -34.76201364995069
        ]
      }
    },
    {
      "type": "Feature",
      "properties": {
        "norad_id": 44794,
        "name": "BEIDOU-3 M21 (C43)",
        "group": "beidou",
        "lat": -33.60062607122892,
        "lon": 155.26199572871593,
        "alt_km": 21541.869906241005,
        "timestamp": "2025-12-07T20:38:14.329451+00:00",
        "meta_object_name": "BEIDOU-3 M21 (C43)",
        "meta_object_id": "2019-078B",
        "meta_epoch": "2025-12-05T21:59:25.852416",
        "meta_mean_motion": 1.86227538,
        "meta_eccentricity": 0.00039607,
        "meta_inclination": 54.088,
        "meta_ra_of_asc_node": 306.5908,
        "meta_arg_of_pericenter": 10.7864,
        "meta_mean_anomaly": 349.2048,
        "meta_ephemeris_type": 0,
        "meta_classification_type": "U",
        "meta_norad_cat_id": 44794,
        "meta_element_set_no": 999,
        "meta_rev_at_epoch": 4105,
        "meta_bstar": 0,
        "meta_mean_motion_dot": -6.9e-07,
        "meta_mean_motion_ddot": 0,
        "tle_line1": "1 44794U 19078B   25339.91627144 -.00000069  00000+0  00000+0 0  9993",
        "tle_line2": "2 44794  54.0880 306.5908 0003960  10.7864 349.2048  1.86227538 41052"
      },
      "geometry": {
        "type": "Point",
        "coordinates": [
          155.26199572871593,
          -33.60062607122892
        ]
      }
    },
    {
      "type": "Feature",
      "properties": {
        "norad_id": 44864,
        "name": "BEIDOU-3 M19 (C41)",
        "group": "beidou",
        "lat": 45.514197006666244,
        "lon": 111.67533656045352,
        "alt_km": 21556.55162462188,
        "timestamp": "2025-12-07T20:38:14.329468+00:00",
        "meta_object_name": "BEIDOU-3 M19 (C41)",
        "meta_object_id": "2019-090A",
        "meta_epoch": "2025-12-02T22:27:31.551840",
        "meta_mean_motion": 1.86231053,
        "meta_eccentricity": 0.00175607,
        "meta_inclination": 56.3847,
        "meta_ra_of_asc_node": 69.2872,
        "meta_arg_of_pericenter": 284.9296,
        "meta_mean_anomaly": 72.494,
        "meta_ephemeris_type": 0,
        "meta_classification_type": "U",
        "meta_norad_cat_id": 44864,
        "meta_element_set_no": 999,
        "meta_rev_at_epoch": 4057,
        "meta_bstar": 0,
        "meta_mean_motion_dot": -4.9e-07,
        "meta_mean_motion_ddot": 0,
        "tle_line1": "1 44864U 19090A   25336.93578185 -.00000049  00000+0  00000+0 0  9992",
        "tle_line2": "2 44864  56.3847  69.2872 0017560 284.9296  72.4940  1.86231053 40575"
      },
      "geometry": {
        "type": "Point",
        "coordinates": [
          111.67533656045352,
          45.514197006666244
        ]
      }
    },
    {
      "type": "Feature",
      "properties": {
        "norad_id": 44865,
        "name": "BEIDOU-3 M20 (C42)",
        "group": "beidou",
        "lat": 25.932733616708074,
        "lon": -129.67190289989074,
        "alt_km": 21560.23492843846,
        "timestamp": "2025-12-07T20:38:14.329491+00:00",
        "meta_object_name": "BEIDOU-3 M20 (C42)",
        "meta_object_id": "2019-090B",
        "meta_epoch": "2025-12-03T10:37:23.867040",
        "meta_mean_motion": 1.86231029,
        "meta_eccentricity": 0.00147135,
        "meta_inclination": 56.3867,
        "meta_ra_of_asc_node": 69.3045,
        "meta_arg_of_pericenter": 297.7194,
        "meta_mean_anomaly": 129.1388,
        "meta_ephemeris_type": 0,
        "meta_classification_type": "U",
        "meta_norad_cat_id": 44865,
        "meta_element_set_no": 999,
        "meta_rev_at_epoch": 4057,
        "meta_bstar": 0,
        "meta_mean_motion_dot": -5e-07,
        "meta_mean_motion_ddot": 0,
        "tle_line1": "1 44865U 19090B   25337.44263735 -.00000050  00000+0  00000+0 0  9994",
        "tle_line2": "2 44865  56.3867  69.3045 0014713 297.7194 129.1388  1.86231029 40576"
      },
      "geometry": {
        "type": "Point",
        "coordinates": [
          -129.67190289989074,
          25.932733616708074
        ]
      }
    },
    {
      "type": "Feature",
      "properties": {
        "norad_id": 45344,
        "name": "BEIDOU-3 G2 (C60)",
        "group": "beidou",
        "lat": 2.229042902352972,
        "lon": 106.43029606737979,
        "alt_km": 35802.43904662584,
        "timestamp": "2025-12-07T20:38:14.329508+00:00",
        "meta_object_name": "BEIDOU-3 G2 (C60)",
        "meta_object_id": "2020-017A",
        "meta_epoch": "2025-12-07T03:44:34.314144",
        "meta_mean_motion": 1.00273155,
        "meta_eccentricity": 0.00043374,
        "meta_inclination": 2.4867,
        "meta_ra_of_asc_node": 43.7891,
        "meta_arg_of_pericenter": 264.3384,
        "meta_mean_anomaly": 264.1971,
        "meta_ephemeris_type": 0,
        "meta_classification_type": "U",
        "meta_norad_cat_id": 45344,
        "meta_element_set_no": 999,
        "meta_rev_at_epoch": 2133,
        "meta_bstar": 0,
        "meta_mean_motion_dot": -1.37e-06,
        "meta_mean_motion_ddot": 0,
        "tle_line1": "1 45344U 20017A   25341.15595271 -.00000137  00000+0  00000+0 0  9990",
        "tle_line2": "2 45344   2.4867  43.7891 0004337 264.3384 264.1971  1.00273155 21331"
      },
      "geometry": {
        "type": "Point",
        "coordinates": [
          106.43029606737979,
          2.229042902352972
        ]
      }
    },
    {
      "type": "Feature",
      "properties": {
        "norad_id": 45807,
        "name": "BEIDOU-3 G3 (C61)",
        "group": "beidou",
        "lat": 1.875028073734383,
        "lon": 136.97210073073543,
        "alt_km": 35798.53027252626,
        "timestamp": "2025-12-07T20:38:14.329520+00:00",
        "meta_object_name": "BEIDOU-3 G3 (C61)",
        "meta_object_id": "2020-040A",
        "meta_epoch": "2025-12-07T02:10:35.134752",
        "meta_mean_motion": 1.00276518,
        "meta_eccentricity": 0.00059287,
        "meta_inclination": 1.9771,
        "meta_ra_of_asc_node": 66.5675,
        "meta_arg_of_pericenter": 306.2403,
        "meta_mean_anomaly": 206.4387,
        "meta_ephemeris_type": 0,
        "meta_classification_type": "U",
        "meta_norad_cat_id": 45807,
        "meta_element_set_no": 999,
        "meta_rev_at_epoch": 2014,
        "meta_bstar": 0,
        "meta_mean_motion_dot": -3.5e-06,
        "meta_mean_motion_ddot": 0,
        "tle_line1": "1 45807U 20040A   25341.09068443 -.00000350  00000+0  00000+0 0  9996",
        "tle_line2": "2 45807   1.9771  66.5675 0005928 306.2403 206.4387  1.00276518 20145"
      },
      "geometry": {
        "type": "Point",
        "coordinates": [
          136.97210073073543,
          1.875028073734383
        ]
      }
    },
    {
      "type": "Feature",
      "properties": {
        "norad_id": 56564,
        "name": "BEIDOU-3 G4 (C62)",
        "group": "beidou",
        "lat": -0.7593766760523852,
        "lon": -173.50350486869516,
        "alt_km": 35773.429467908034,
        "timestamp": "2025-12-07T20:38:14.329532+00:00",
        "meta_object_name": "BEIDOU-3 G4 (C62)",
        "meta_object_id": "2023-066A",
        "meta_epoch": "2025-12-07T05:50:07.288224",
        "meta_mean_motion": 1.00271017,
        "meta_eccentricity": 0.00031238,
        "meta_inclination": 0.8274,
        "meta_ra_of_asc_node": 301.6019,
        "meta_arg_of_pericenter": 236.686,
        "meta_mean_anomaly": 145.5792,
        "meta_ephemeris_type": 0,
        "meta_classification_type": "U",
        "meta_norad_cat_id": 56564,
        "meta_element_set_no": 999,
        "meta_rev_at_epoch": 947,
        "meta_bstar": 0,
        "meta_mean_motion_dot": -1.06e-06,
        "meta_mean_motion_ddot": 0,
        "tle_line1": "1 56564U 23066A   25341.24313991 -.00000106  00000+0  00000+0 0  9996",
        "tle_line2": "2 56564   0.8274 301.6019 0003123 236.6860 145.5792  1.00271017  9471"
      },
      "geometry": {
        "type": "Point",
        "coordinates": [
          -173.50350486869516,
          -0.7593766760523852
        ]
      }
    }
  ]
}